CCSDS_OMM_VERS = 2.0
CREATION_DATE  = 
ORIGINATOR     = 

OBJECT_NAME    = STARLINK-36569
OBJECT_ID      = 2026-014X
CENTER_NAME    = EARTH
REF_FRAME      = TEME
TIME_SYSTEM    = UTC
MEAN_ELEMENT_THEORY = SGP/SGP4

EPOCH          = 2026-02-16T12:00:01.999296
MEAN_MOTION    = 15.75172640
ECCENTRICITY   = .0001528
INCLINATION    = 97.2856
RA_OF_ASC_NODE = 291.4204
ARG_OF_PERICENTER = 91.9144
MEAN_ANOMALY   = 142.9902

EPHEMERIS_TYPE = 0
CLASSIFICATION_TYPE = U
NORAD_CAT_ID   = 67553
ELEMENT_SET_NO = 999
REV_AT_EPOCH   = 528
BSTAR          = .29967E-3
MEAN_MOTION_DOT = .4477E-3
MEAN_MOTION_DDOT = 0

CCSDS_OMM_VERS = 2.0
CREATION_DATE  = 
ORIGINATOR     = 

OBJECT_NAME    = STARLINK-36395
OBJECT_ID      = 2026-014Y
CENTER_NAME    = EARTH
REF_FRAME      = TEME
TIME_SYSTEM    = UTC
MEAN_ELEMENT_THEORY = SGP/SGP4

EPOCH          = 2026-02-16T05:23:56.175072
MEAN_MOTION    = 15.75198164
ECCENTRICITY   = .000164
INCLINATION    = 97.2852
RA_OF_ASC_NODE = 291.0815
ARG_OF_PERICENTER = 89.2015
MEAN_ANOMALY   = 270.9438

EPHEMERIS_TYPE = 0
CLASSIFICATION_TYPE = U
NORAD_CAT_ID   = 67554
ELEMENT_SET_NO = 999
REV_AT_EPOCH   = 518
BSTAR          = .14054E-2
MEAN_MOTION_DOT = .214934E-2
MEAN_MOTION_DDOT = 0

CCSDS_OMM_VERS = 2.0
CREATION_DATE  = 
ORIGINATOR     = 

OBJECT_NAME    = STARLINK-36559
OBJECT_ID      = 2026-014Z
CENTER_NAME    = EARTH
REF_FRAME      = TEME
TIME_SYSTEM    = UTC
MEAN_ELEMENT_THEORY = SGP/SGP4

EPOCH          = 2026-02-16T05:25:57.971424
MEAN_MOTION    = 15.75221666
ECCENTRICITY   = .0001323
INCLINATION    = 97.2853
RA_OF_ASC_NODE = 291.0796
ARG_OF_PERICENTER = 63.4839
MEAN_ANOMALY   = 296.6562

EPHEMERIS_TYPE = 0
CLASSIFICATION_TYPE = U
NORAD_CAT_ID   = 67555
ELEMENT_SET_NO = 999
REV_AT_EPOCH   = 518
BSTAR          = .16279E-2
MEAN_MOTION_DOT = .250276E-2
MEAN_MOTION_DDOT = 0

CCSDS_OMM_VERS = 2.0
CREATION_DATE  = 
ORIGINATOR     = 

OBJECT_NAME    = MR-2
OBJECT_ID      = 2026-015A
CENTER_NAME    = EARTH
REF_FRAME      = TEME
TIME_SYSTEM    = UTC
MEAN_ELEMENT_THEORY = SGP/SGP4

EPOCH          = 2026-02-16T04:29:28.385376
MEAN_MOTION    = 13.52686425
ECCENTRICITY   = .00050835
INCLINATION    = 88.9967
RA_OF_ASC_NODE = 280.8488
ARG_OF_PERICENTER = 77.2216
MEAN_ANOMALY   = 282.9504

EPHEMERIS_TYPE = 0
CLASSIFICATION_TYPE = U
NORAD_CAT_ID   = 67556
ELEMENT_SET_NO = 999
REV_AT_EPOCH   = 335
BSTAR          = .93428798E-4
MEAN_MOTION_DOT = .74E-6
MEAN_MOTION_DDOT = 0

CCSDS_OMM_VERS = 2.0
CREATION_DATE  = 
ORIGINATOR     = 

OBJECT_NAME    = MR-1
OBJECT_ID      = 2026-015B
CENTER_NAME    = EARTH
REF_FRAME      = TEME
TIME_SYSTEM    = UTC
MEAN_ELEMENT_THEORY = SGP/SGP4

EPOCH          = 2026-02-16T04:30:07.364736
MEAN_MOTION    = 13.52661591
ECCENTRICITY   = .00051758
INCLINATION    = 88.9968
RA_OF_ASC_NODE = 280.8492
ARG_OF_PERICENTER = 75.8742
MEAN_ANOMALY   = 284.2985

EPHEMERIS_TYPE = 0
CLASSIFICATION_TYPE = U
NORAD_CAT_ID   = 67557
ELEMENT_SET_NO = 999
REV_AT_EPOCH   = 335
BSTAR          = .11166767E-3
MEAN_MOTION_DOT = .86E-6
MEAN_MOTION_DDOT = 0

CCSDS_OMM_VERS = 2.0
CREATION_DATE  = 
ORIGINATOR     = 

OBJECT_NAME    = ELECTRON R/B
OBJECT_ID      = 2026-015C
CENTER_NAME    = EARTH
REF_FRAME      = TEME
TIME_SYSTEM    = UTC
MEAN_ELEMENT_THEORY = SGP/SGP4

EPOCH          = 2026-02-16T14:23:01.719744
MEAN_MOTION    = 15.62579620
ECCENTRICITY   = .0326344
INCLINATION    = 88.9745
RA_OF_ASC_NODE = 280.0235
ARG_OF_PERICENTER = 176.1922
MEAN_ANOMALY   = 184.1956

EPHEMERIS_TYPE = 0
CLASSIFICATION_TYPE = U
NORAD_CAT_ID   = 67558
ELEMENT_SET_NO = 999
REV_AT_EPOCH   = 380
BSTAR          = .16978E-2
MEAN_MOTION_DOT = .3855826E-1
MEAN_MOTION_DDOT = -.13223E-5

CCSDS_OMM_VERS = 2.0
CREATION_DATE  = 
ORIGINATOR     = 

OBJECT_NAME    = ELECTRON KICK STAGE R/B
OBJECT_ID      = 2026-015D
CENTER_NAME    = EARTH
REF_FRAME      = TEME
TIME_SYSTEM    = UTC
MEAN_ELEMENT_THEORY = SGP/SGP4

EPOCH          = 2026-02-16T10:50:42.922752
MEAN_MOTION    = 14.68372959
ECCENTRICITY   = .0527883
INCLINATION    = 89.0502
RA_OF_ASC_NODE = 280.4191
ARG_OF_PERICENTER = 247.6190
MEAN_ANOMALY   = 106.8299

EPHEMERIS_TYPE = 0
CLASSIFICATION_TYPE = U
NORAD_CAT_ID   = 67559
ELEMENT_SET_NO = 999
REV_AT_EPOCH   = 367
BSTAR          = .92877E-3
MEAN_MOTION_DOT = .55246E-3
MEAN_MOTION_DDOT = .17602E-7

CCSDS_OMM_VERS = 2.0
CREATION_DATE  = 
ORIGINATOR     = 

OBJECT_NAME    = STARLINK-36426
OBJECT_ID      = 2026-014AA
CENTER_NAME    = EARTH
REF_FRAME      = TEME
TIME_SYSTEM    = UTC
MEAN_ELEMENT_THEORY = SGP/SGP4

EPOCH          = 2026-02-16T12:00:01.999296
MEAN_MOTION    = 15.75211333
ECCENTRICITY   = .0001652
INCLINATION    = 97.2842
RA_OF_ASC_NODE = 291.4393
ARG_OF_PERICENTER = 96.0600
MEAN_ANOMALY   = 172.8305

EPHEMERIS_TYPE = 0
CLASSIFICATION_TYPE = U
NORAD_CAT_ID   = 67560
ELEMENT_SET_NO = 999
REV_AT_EPOCH   = 411
BSTAR          = -.11576E-3
MEAN_MOTION_DOT = -.17377E-3
MEAN_MOTION_DDOT = 0

CCSDS_OMM_VERS = 2.0
CREATION_DATE  = 
ORIGINATOR     = 

OBJECT_NAME    = STARLINK-36621
OBJECT_ID      = 2026-016A
CENTER_NAME    = EARTH
REF_FRAME      = TEME
TIME_SYSTEM    = UTC
MEAN_ELEMENT_THEORY = SGP/SGP4

EPOCH          = 2026-02-16T07:37:45.611328
MEAN_MOTION    = 15.75203016
ECCENTRICITY   = .0001322
INCLINATION    = 97.2826
RA_OF_ASC_NODE = 106.6683
ARG_OF_PERICENTER = 102.7230
MEAN_ANOMALY   = 257.4183

EPHEMERIS_TYPE = 0
CLASSIFICATION_TYPE = U
NORAD_CAT_ID   = 67561
ELEMENT_SET_NO = 999
REV_AT_EPOCH   = 343
BSTAR          = .10082E-2
MEAN_MOTION_DOT = .153064E-2
MEAN_MOTION_DDOT = 0

CCSDS_OMM_VERS = 2.0
CREATION_DATE  = 
ORIGINATOR     = 

OBJECT_NAME    = STARLINK-36398
OBJECT_ID      = 2026-016B
CENTER_NAME    = EARTH
REF_FRAME      = TEME
TIME_SYSTEM    = UTC
MEAN_ELEMENT_THEORY = SGP/SGP4

EPOCH          = 2026-02-16T10:51:23.298336
MEAN_MOTION    = 15.75218289
ECCENTRICITY   = .0001855
INCLINATION    = 97.2837
RA_OF_ASC_NODE = 106.7890
ARG_OF_PERICENTER = 118.1734
MEAN_ANOMALY   = 241.9719

EPHEMERIS_TYPE = 0
CLASSIFICATION_TYPE = U
NORAD_CAT_ID   = 67562
ELEMENT_SET_NO = 999
REV_AT_EPOCH   = 345
BSTAR          = .6268E-3
MEAN_MOTION_DOT = .94521E-3
MEAN_MOTION_DDOT = 0

CCSDS_OMM_VERS = 2.0
CREATION_DATE  = 
ORIGINATOR     = 

OBJECT_NAME    = STARLINK-36403
OBJECT_ID      = 2026-016C
CENTER_NAME    = EARTH
REF_FRAME      = TEME
TIME_SYSTEM    = UTC
MEAN_ELEMENT_THEORY = SGP/SGP4

EPOCH          = 2026-02-16T07:04:54.738336
MEAN_MOTION    = 15.80875554
ECCENTRICITY   = .0001091
INCLINATION    = 97.2831
RA_OF_ASC_NODE = 106.7004
ARG_OF_PERICENTER = 101.4288
MEAN_ANOMALY   = 258.7103

EPHEMERIS_TYPE = 0
CLASSIFICATION_TYPE = U
NORAD_CAT_ID   = 67563
ELEMENT_SET_NO = 999
REV_AT_EPOCH   = 343
BSTAR          = .13145E-2
MEAN_MOTION_DOT = .259993E-2
MEAN_MOTION_DDOT = 0

CCSDS_OMM_VERS = 2.0
CREATION_DATE  = 
ORIGINATOR     = 

OBJECT_NAME    = STARLINK-36593
OBJECT_ID      = 2026-016D
CENTER_NAME    = EARTH
REF_FRAME      = TEME
TIME_SYSTEM    = UTC
MEAN_ELEMENT_THEORY = SGP/SGP4

EPOCH          = 2026-02-16T07:03:08.853408
MEAN_MOTION    = 15.80907038
ECCENTRICITY   = .0001558
INCLINATION    = 97.2830
RA_OF_ASC_NODE = 106.7018
ARG_OF_PERICENTER = 117.4168
MEAN_ANOMALY   = 242.7259

EPHEMERIS_TYPE = 0
CLASSIFICATION_TYPE = U
NORAD_CAT_ID   = 67564
ELEMENT_SET_NO = 999
REV_AT_EPOCH   = 343
BSTAR          = .15887E-2
MEAN_MOTION_DOT = .316804E-2
MEAN_MOTION_DDOT = 0

