STARLINK-36569          
1 67553U 26014X   26047.50002314  .00044770  00000+0  29967-3 0  9990
2 67553  97.2856 291.4204 0001528  91.9144 142.9902 15.75172640  5281
STARLINK-36395          
1 67554U 26014Y   26047.22495573  .00214934  00000+0  14054-2 0  9994
2 67554  97.2852 291.0815 0001640  89.2015 270.9438 15.75198164  5188
STARLINK-36559          
1 67555U 26014Z   26047.22636541  .00250276  00000+0  16279-2 0  9997
2 67555  97.2853 291.0796 0001323  63.4839 296.6562 15.75221666  5181
MR-2                    
1 67556U 26015A   26047.18713409  .00000074  00000+0  93429-4 0  9996
2 67556  88.9967 280.8488 0005083  77.2216 282.9504 13.52686425  3350
MR-1                    
1 67557U 26015B   26047.18758524  .00000086  00000+0  11167-3 0  9995
2 67557  88.9968 280.8492 0005175  75.8742 284.2985 13.52661591  3352
ELECTRON R/B            
1 67558U 26015C   26047.59932546  .03855826 -13223-5  16978-2 0  9994
2 67558  88.9745 280.0235 0326344 176.1922 184.1956 15.62579620  3802
ELECTRON KICK STAGE R/B 
1 67559U 26015D   26047.45188568  .00055246  17602-7  92877-3 0  9991
2 67559  89.0502 280.4191 0527883 247.6190 106.8299 14.68372959  3670
STARLINK-36426          
1 67560U 26014AA  26047.50002314 -.00017377  00000+0 -11576-3 0  9990
2 67560  97.2842 291.4393 0001652  96.0600 172.8305 15.75211333  4117
STARLINK-36621          
1 67561U 26016A   26047.31788902  .00153064  00000+0  10082-2 0  9998
2 67561  97.2826 106.6683 0001322 102.7230 257.4183 15.75203016  3434
STARLINK-36398          
1 67562U 26016B   26047.45235299  .00094521  00000+0  62680-3 0  9994
2 67562  97.2837 106.7890 0001855 118.1734 241.9719 15.75218289  3452
STARLINK-36403          
1 67563U 26016C   26047.29507799  .00259993  00000+0  13145-2 0  9991
2 67563  97.2831 106.7004 0001091 101.4288 258.7103 15.80875554  3436
STARLINK-36593          
1 67564U 26016D   26047.29385247  .00316804  00000+0  15887-2 0  9994
2 67564  97.2830 106.7018 0001558 117.4168 242.7259 15.80907038  3431
